IRIDIUM 36              
1 24967U 97056C   24347.72799858  .00000758  00000+0  24799-3 0  9993
2 24967  86.3970 251.2783 0001941  81.5530 278.5888 14.37288102425438
IRIDIUM 39              
1 25042U 97069D   24347.81181913  .00001339  00000+0  34945-3 0  9999
2 25042  86.3901 291.0451 0016763 202.6661 157.3804 14.48712147421970
IRIDIUM 38              
1 25043U 97069E   24347.88566248  .00000962  00000+0  31323-3 0  9993
2 25043  86.3945 311.5595 0002795  44.4867 315.6555 14.37775169419189
IRIDIUM 42              
1 25077U 97077A   24347.66461860  .00000959  00000+0  32335-3 0  9999
2 25077  86.3949 317.5934 0002511  71.0297 289.1172 14.36036321414423
IRIDIUM 44              
1 25078U 97077B   24347.77374486  .00000911  00000+0  28388-3 0  9990
2 25078  86.3941 299.9593 0000724  41.7564 318.3690 14.39905144416877
IRIDIUM 45              
1 25104U 97082A   24347.48327282  .00018306  00000+0  82885-3 0  9995
2 25104  86.3625 137.9002 0136681 307.0719  51.8085 15.12679408423726
IRIDIUM 24              
1 25105U 97082B   24347.91554187  .00000926  00000+0  27783-3 0  9995
2 25105  86.3924 159.2592 0010730 343.5020  16.5829 14.41727390416378
IRIDIUM 51              
1 25262U 98018A   24347.87998901  .00033732  00000+0  11544-2 0  9998
2 25262  86.3899 146.9308 0115475 238.5068 120.4854 15.23836032418503
